NORAD_CAT_ID,OBJECT_NAME,OBJECT_TYPE,EPOCH,MEAN_MOTION,ECCENTRICITY,INCLINATION,RA_OF_ASC_NODE,ARG_OF_PERICENTER,MEAN_ANOMALY,BSTAR,MEAN_MOTION_DOT,MEAN_MOTION_DDOT,TLE_LINE0,TLE_LINE1,TLE_LINE2,SEMIMAJOR_AXIS,PERIOD,APOGEE,PERIGEE,DECAYED
55780.0,STARLINK-5819,PAYLOAD,2024-02-20 19:40:45,14.98333717,0.0002739,70.0,309.9329,275.2562,84.8284,3.9867e-05,3.83e-06,0.0,0 STARLINK-5819,1 55780U 23028AR  24051.81996924  .00000383  00000-0  39867-4 0  9991,2 55780  70.0000 309.9329 0002739 275.2562  84.8284 14.98333717 54514,6950.181,96.107,573.95,570.143,0.0
55780.0,STARLINK-5819,PAYLOAD,2024-02-20 22:53:01,14.98332484,0.0002757,70.0,309.596,269.3643,90.72,4.3658e-05,4.28e-06,0.0,0 STARLINK-5819,1 55780U 23028AR  24051.95348908  .00000428  00000-0  43658-4 0  9992,2 55780  70.0000 309.5960 0002757 269.3643  90.7200 14.98332484 54531,6950.185,96.107,573.966,570.134,0.0
55780.0,STARLINK-5819,PAYLOAD,2024-02-21 03:41:24,14.98359207,0.0002434,70.0001,309.0913,272.8337,87.2544,-0.00032628,-3.987e-05,0.0,0 STARLINK-5819,1 55780U 23028AR  24052.15376039 -.00003987  00000-0 -32628-3 0  9990,2 55780  70.0001 309.0913 0002434 272.8337  87.2544 14.98359207 54563,6950.103,96.105,573.659,570.276,0.0
55780.0,STARLINK-5819,PAYLOAD,2024-02-21 10:05:57,14.98351738,0.0002744,70.0002,308.4175,271.8203,88.2642,-0.00030441,-3.725e-05,0.0,0 STARLINK-5819,1 55780U 23028AR  24052.42080295 -.00003725  00000-0 -30441-3 0  9997,2 55780  70.0002 308.4175 0002744 271.8203  88.2642 14.98351738 54608,6950.126,96.106,573.898,570.084,0.0
55780.0,STARLINK-5819,PAYLOAD,2024-02-21 19:42:46,14.98327564,0.0002661,69.9999,307.4078,265.1089,94.9766,2.6948e-05,2.29e-06,0.0,0 STARLINK-5819,1 55780U 23028AR  24052.82137097  .00000229  00000-0  26948-4 0  9996,2 55780  69.9999 307.4078 0002661 265.1089  94.9766 14.98327564 54664,6950.2,96.107,573.915,570.216,0.0
55780.0,STARLINK-5819,PAYLOAD,2024-02-21 22:55:02,14.98328465,0.0002676,70.0,307.0715,263.0923,96.9932,3.1701e-05,2.85e-06,0.0,0 STARLINK-5819,1 55780U 23028AR  24052.95489021  .00000285  00000-0  31701-4 0  9992,2 55780  70.0000 307.0715 0002676 263.0923  96.9932 14.98328465 54684,6950.198,96.107,573.923,570.203,0.0
55780.0,STARLINK-5819,PAYLOAD,2024-02-22 03:43:26,14.98329013,0.0002689,69.9999,306.5666,262.2956,97.7897,3.3192e-05,3.03e-06,0.0,0 STARLINK-5819,1 55780U 23028AR  24053.15516989  .00000303  00000-0  33192-4 0  9996,2 55780  69.9999 306.5666 0002689 262.2956  97.7897 14.98329013 54711,6950.196,96.107,573.93,570.192,0.0
55780.0,STARLINK-5819,PAYLOAD,2024-02-22 19:44:47,14.98331667,0.000268,70.0001,304.8836,263.8855,96.1999,-1.5026e-05,-2.72e-06,0.0,0 STARLINK-5819,1 55780U 23028AR  24053.82276915 -.00000272  00000-0 -15026-4 0  9995,2 55780  70.0001 304.8836 0002680 263.8855  96.1999 14.98331667 54819,6950.188,96.107,573.915,570.19,0.0
55780.0,STARLINK-5819,PAYLOAD,2024-02-22 21:20:55,14.98331314,0.0002679,70.0001,304.7153,263.8835,96.2019,-1.8318e-05,-3.12e-06,0.0,0 STARLINK-5819,1 55780U 23028AR  24053.88952937 -.00000312  00000-0 -18318-4 0  9998,2 55780  70.0001 304.7153 0002679 263.8835  96.2019 14.98331314 54820,6950.189,96.107,573.916,570.192,0.0
55780.0,STARLINK-5819,PAYLOAD,2024-02-23 10:09:59,14.98346313,0.0002339,70.0003,303.3675,274.8027,85.2864,-0.00029373,-3.597e-05,0.0,0 STARLINK-5819,1 55780U 23028AR  24054.42360611 -.00003597  00000-0 -29373-3 0  9991,2 55780  70.0003 303.3675 0002339 274.8027  85.2864 14.98346313 54904,6950.142,96.106,573.633,570.382,0.0
55780.0,STARLINK-5819,PAYLOAD,2024-02-23 19:46:48,14.98325234,0.000276,69.9998,302.3572,266.5087,93.5757,1.6055e-05,9.9e-07,0.0,0 STARLINK-5819,1 55780U 23028AR  24054.82417157  .00000099  00000-0  16055-4 0  9999,2 55780  69.9998 302.3572 0002760 266.5087  93.5757 14.98325234 54969,6950.208,96.107,573.991,570.154,0.0
55780.0,STARLINK-5819,PAYLOAD,2024-02-23 22:59:04,14.98324871,0.0002576,69.9999,302.0205,261.9059,98.1808,4.5675e-05,4.52e-06,0.0,0 STARLINK-5819,1 55780U 23028AR  24054.95769118  .00000452  00000-0  45675-4 0  9993,2 55780  69.9999 302.0205 0002576 261.9059  98.1808 14.98324871 54989,6950.209,96.107,573.864,570.283,0.0
55780.0,STARLINK-5819,PAYLOAD,2024-02-24 10:12:00,14.98330865,0.0002704,69.9996,300.8424,268.731,91.3539,-4.0147e-06,-1.41e-06,0.0,0 STARLINK-5819,1 55780U 23028AR  24055.42500961 -.00000141  00000-0 -40147-5 0  9992,2 55780  69.9996 300.8424 0002704 268.7310  91.3539 14.98330865 55058,6950.19,96.107,573.935,570.176,0.0
55780.0,STARLINK-5819,PAYLOAD,2024-02-25 19:50:49,14.98332404,0.000284,69.9991,297.3077,267.5414,92.542,9.5716e-05,1.049e-05,0.0,0 STARLINK-5819,1 55780U 23028AR  24056.82696326  .00001049  00000-0  95716-4 0  9995,2 55780  69.9991 297.3077 0002840 267.5414  92.5420 14.98332404 55266,6950.185,96.107,574.024,570.077,0.0
55780.0,STARLINK-5819,PAYLOAD,2024-02-25 23:03:05,14.98334393,0.000297,69.9988,296.9712,268.5475,91.5343,6.8287e-05,7.22e-06,0.0,0 STARLINK-5819,1 55780U 23028AR  24056.96048252  .00000722  00000-0  68287-4 0  9999,2 55780  69.9988 296.9712 0002970 268.5475  91.5343 14.98334393 55289,6950.179,96.107,574.109,569.98,0.0
55780.0,STARLINK-5819,PAYLOAD,2024-02-26 02:15:21,14.98336538,0.0002973,69.9989,296.6347,268.7227,91.3591,8.7467e-05,9.51e-06,0.0,0 STARLINK-5819,1 55780U 23028AR  24057.09400012  .00000951  00000-0  87467-4 0  9995,2 55780  69.9989 296.6347 0002973 268.7227  91.3591 14.98336538 55300,6950.173,96.107,574.104,569.971,0.0
55780.0,STARLINK-5819,PAYLOAD,2024-02-26 19:52:51,14.98326535,0.0002912,69.9989,294.7832,270.1748,89.9078,-6.3912e-05,-8.55e-06,0.0,0 STARLINK-5819,1 55780U 23028AR  24057.82837068 -.00000855  00000-0 -63912-4 0  9995,2 55780  69.9989 294.7832 0002912 270.1748  89.9078 14.98326535 55417,6950.204,96.107,574.093,570.045,0.0
55780.0,STARLINK-5819,PAYLOAD,2024-02-26 21:28:59,14.98327942,0.0002843,69.9989,294.6148,269.5258,90.5575,-5.3737e-05,-7.34e-06,0.0,0 STARLINK-5819,1 55780U 23028AR  24057.89512925 -.00000734  00000-0 -53737-4 0  9994,2 55780  69.9989 294.6148 0002843 269.5258  90.5575 14.98327942 55421,6950.199,96.107,574.04,570.088,0.0
55780.0,STARLINK-5819,PAYLOAD,2024-02-27 08:41:55,14.98331425,0.0003003,69.9982,293.437,267.0862,92.9953,-5.8996e-05,-7.97e-06,0.0,0 STARLINK-5819,1 55780U 23028AR  24058.36244753 -.00000797  00000-0 -58996-4 0  9999,2 55780  69.9982 293.4370 0003003 267.0862  92.9953 14.98331425 55495,6950.188,96.107,574.141,569.966,0.0
55780.0,STARLINK-5819,PAYLOAD,2024-02-27 19:54:51,14.98332701,0.0002963,69.9983,292.2584,269.152,90.9299,-3.2865e-05,-4.85e-06,0.0,0 STARLINK-5819,1 55780U 23028AR  24058.82976537 -.00000485  00000-0 -32865-4 0  9993,2 55780  69.9983 292.2584 0002963 269.1520  90.9299 14.98332701 55565,6950.185,96.107,574.109,569.99,0.0
55780.0,STARLINK-5819,PAYLOAD,2024-02-27 21:30:59,14.9833298,0.0002968,69.9982,292.09,267.1608,92.9211,-2.1659e-05,-3.51e-06,0.0,0 STARLINK-5819,1 55780U 23028AR  24058.89652465 -.00000351  00000-0 -21659-4 0  9992,2 55780  69.9982 292.0900 0002968 267.1608  92.9211 14.98332980 55570,6950.184,96.107,574.111,569.986,0.0
55780.0,STARLINK-5819,PAYLOAD,2024-02-28 15:08:28,14.98326148,0.0002904,69.9979,290.2378,271.4853,88.5974,2.5454e-05,2.11e-06,0.0,0 STARLINK-5819,1 55780U 23028AR  24059.63088762  .00000211  00000-0  25454-4 0  9998,2 55780  69.9979 290.2378 0002904 271.4853  88.5974 14.98326148 55683,6950.205,96.107,574.088,570.051,0.0
55780.0,STARLINK-5819,PAYLOAD,2024-02-28 19:56:52,14.98325945,0.0002923,69.998,289.7327,271.3136,88.7688,2.055e-05,1.52e-06,0.0,0 STARLINK-5819,1 55780U 23028AR  24059.83116818  .00000152  00000-0  20550-4 0  9990,2 55780  69.9980 289.7327 0002923 271.3136  88.7688 14.98325945 55718,6950.205,96.107,574.102,570.039,0.0
55780.0,STARLINK-5819,PAYLOAD,2024-02-28 21:33:00,14.98327131,0.0002922,69.9981,289.5645,270.9805,89.1019,3.2167e-05,2.91e-06,0.0,0 STARLINK-5819,1 55780U 23028AR  24059.89792719  .00000291  00000-0  32167-4 0  9997,2 55780  69.9981 289.5645 0002922 270.9805  89.1019 14.98327131 55720,6950.202,96.107,574.098,570.036,0.0
55780.0,STARLINK-5819,PAYLOAD,2024-02-29 08:45:57,14.98326979,0.0002916,69.9982,288.3863,270.8345,89.248,8.0957e-06,4e-08,0.0,0 STARLINK-5819,1 55780U 23028AR  24060.36524862  .00000004  00000-0  80957-5 0  9996,2 55780  69.9982 288.3863 0002916 270.8345  89.2480 14.98326979 55790,6950.202,96.107,574.094,570.041,0.0
55780.0,STARLINK-5819,PAYLOAD,2024-02-29 19:58:53,14.98327898,0.0002933,69.9982,287.2079,270.67,89.4123,3.9444e-06,-4.6e-07,0.0,0 STARLINK-5819,1 55780U 23028AR  24060.83256849 -.00000046  00000-0  39444-5 0  9997,2 55780  69.9982 287.2079 0002933 270.6700  89.4123 14.98327898 55864,6950.199,96.107,574.103,570.026,0.0
55780.0,STARLINK-5819,PAYLOAD,2024-02-29 21:35:01,14.98329873,0.0002899,69.9985,287.0396,270.6014,89.4813,-1.659e-05,-2.91e-06,0.0,0 STARLINK-5819,1 55780U 23028AR  24060.89932792 -.00000291  00000-0 -16590-4 0  9990,2 55780  69.9985 287.0396 0002899 270.6014  89.4813 14.98329873 55878,6950.193,96.107,574.073,570.043,0.0
55780.0,STARLINK-5819,PAYLOAD,2024-03-01 00:47:17,14.98335806,0.000285,69.9987,286.703,270.865,89.2182,5.1313e-05,5.19e-06,0.0,0 STARLINK-5819,1 55780U 23028AR  24061.03284224  .00000519  00000-0  51313-4 0  9990,2 55780  69.9987 286.7030 0002850 270.8650  89.2182 14.98335806 55898,6950.175,96.107,574.021,570.059,0.0
55780.0,STARLINK-5819,PAYLOAD,2024-03-01 21:37:02,14.98330866,0.0002864,69.9985,284.5147,270.6234,89.4597,3.0402e-05,2.7e-06,0.0,0 STARLINK-5819,1 55780U 23028AR  24061.90072383  .00000270  00000-0  30402-4 0  9997,2 55780  69.9985 284.5147 0002864 270.6234  89.4597 14.98330866 56021,6950.19,96.107,574.046,570.065,0.0
55780.0,STARLINK-5819,PAYLOAD,2024-03-02 00:49:18,14.98333009,0.0002817,69.9986,284.1779,268.5282,91.5554,8.858e-05,9.64e-06,0.0,0 STARLINK-5819,1 55780U 23028AR  24062.03424062  .00000964  00000-0  88580-4 0  9997,2 55780  69.9986 284.1779 0002817 268.5282  91.5554 14.98333009 56047,6950.184,96.107,574.006,570.091,0.0
